{"1700": {"postalCode": "1700", "adminName1": "Canton de Fribourg", "adminCode1": "FR", "adminCode2": "1004", "lat": 46.80425070735043, "adminName3": "Fribourg", "adminName2": "District de la Sarine", "lng": 7.166737897162936, "countryCode": "CH", "placeName": "Fribourg", "adminCode3": "2196"}, "2503": {"postalCode": "2503", "adminName1": "Kanton Bern", "adminCode1": "BE", "adminCode2": "242", "lat": 47.13107257132547, "adminName3": "Biel/Bienne", "adminName2": "Biel/Bienne", "lng": 7.251864066893859, "countryCode": "CH", "placeName": "Biel/Bienne", "adminCode3": "371"}, "1224": {"postalCode": "1224", "adminName1": "Canton de Gen\u00e8ve", "adminCode1": "GE", "adminCode2": "2500", "lat": 46.20317027898692, "adminName3": "Ch\u00eane-Bougeries", "adminName2": "Geneva", "lng": 6.195130828174441, "countryCode": "CH", "placeName": "Ch\u00eane-Bougeries", "adminCode3": "6612"}, "1110": {"postalCode": "1110", "adminName1": "Canton de Vaud", "adminCode1": "VD", "adminCode2": "2227", "lat": 46.51351128494602, "adminName3": "Morges", "adminName2": "District de Morges", "lng": 6.494924855691232, "countryCode": "CH", "placeName": "Morges", "adminCode3": "5642"}, "8001": {"postalCode": "8001", "adminName1": "Kanton Z\u00fcrich", "adminCode1": "ZH", "adminCode2": "112", "lat": 47.372049452967005, "adminName3": "Z\u00fcrich", "adminName2": "Bezirk Z\u00fcrich", "lng": 8.54133621385191, "countryCode": "CH", "placeName": "Z\u00fcrich", "adminCode3": "261"}, "1211": {"postalCode": "1211", "adminName1": "Canton de Gen\u00e8ve", "adminCode1": "GE", "adminCode2": "2500", "lat": 46.211111116666665, "adminName3": "Gen\u00e8ve", "adminName2": "Geneva", "lng": 6.102777783333333, "countryCode": "CH", "placeName": "Gen\u00e8ve 2", "adminCode3": "6621"}, "1225": {"postalCode": "1225", "adminName1": "Canton de Gen\u00e8ve", "adminCode1": "GE", "adminCode2": "2500", "lat": 46.19641027404938, "adminName3": "Ch\u00eane-Bourg", "adminName2": "Geneva", "lng": 6.197622822273545, "countryCode": "CH", "placeName": "Ch\u00eane-Bourg", "adminCode3": "6613"}, "6830": {"postalCode": "6830", "adminName1": "Cantone Ticino", "adminCode1": "TI", "adminCode2": "2106", "lat": 45.833736590193546, "adminName3": "Chiasso", "adminName2": "Distretto di Mendrisio", "lng": 9.026941853065969, "countryCode": "CH", "placeName": "Chiasso", "adminCode3": "5250"}, "1290": {"postalCode": "1290", "adminName1": "Canton de Gen\u00e8ve", "adminCode1": "GE", "adminCode2": "2500", "lat": 46.29374322262912, "adminName3": "Versoix", "adminName2": "Geneva", "lng": 6.14994603841677, "countryCode": "CH", "placeName": "Versoix", "adminCode3": "6644"}, "1296": {"postalCode": "1296", "adminName1": "Canton de Vaud", "adminCode1": "VD", "adminCode2": "2228", "lat": 46.320688790178465, "adminName3": "Coppet", "adminName2": "District de Nyon", "lng": 6.189223339974032, "countryCode": "CH", "placeName": "Coppet", "adminCode3": "5712"}, "2001": {"postalCode": "2001", "adminName1": "Canton de Neuch\u00e2tel", "adminCode1": "NE", "adminCode2": "2404", "lat": 47, "adminName3": "Neuch\u00e2tel", "adminName2": "District de Neuch\u00e2tel", "lng": 6.9666667, "countryCode": "CH", "placeName": "Neuch\u00e2tel 1", "adminCode3": "6458"}, "1261": {"postalCode": "1261", "adminName1": "Canton de Vaud", "adminCode1": "VD", "adminCode2": "2228", "lat": 46.47998250005999, "adminName3": "Le Vaud", "adminName2": "District de Nyon", "lng": 6.23382360013952, "countryCode": "CH", "placeName": "Le Vaud", "adminCode3": "5731"}, "2072": {"postalCode": "2072", "adminName1": "Canton de Neuch\u00e2tel", "adminCode1": "NE", "adminCode2": "2404", "lat": 47.037437864883294, "adminName3": "Saint-Blaise", "adminName2": "District de Neuch\u00e2tel", "lng": 7.002109432990197, "countryCode": "CH", "placeName": "St-Blaise", "adminCode3": "6459"}, "1228": {"postalCode": "1228", "adminName1": "Canton de Gen\u00e8ve", "adminCode1": "GE", "adminCode2": "2500", "lat": 46.16419040426187, "adminName3": "Plan-les-Ouates", "adminName2": "Geneva", "lng": 6.118195661336755, "countryCode": "CH", "placeName": "Plan-les-Ouates", "adminCode3": "6633"}, "1000": {"postalCode": "1000", "adminName1": "Canton de Vaud", "adminCode1": "VD", "adminCode2": "2225", "lat": 46.52913524902344, "adminName3": "Lausanne", "adminName2": "District de Lausanne", "lng": 6.652444170227051, "countryCode": "CH", "placeName": "Lausanne", "adminCode3": "5586"}, "8036": {"postalCode": "8036", "adminName1": "Kanton Z\u00fcrich", "adminCode1": "ZH", "adminCode2": "112", "lat": 47.3666667, "adminName3": "Z\u00fcrich", "adminName2": "Bezirk Z\u00fcrich", "lng": 8.55, "countryCode": "CH", "placeName": "Z\u00fcrich", "adminCode3": "261"}, "8708": {"postalCode": "8708", "adminName1": "Kanton Z\u00fcrich", "adminCode1": "ZH", "adminCode2": "107", "lat": 47.252054665740246, "adminName3": "M\u00e4nnedorf", "adminName2": "Bezirk Meilen", "lng": 8.692405458838438, "countryCode": "CH", "placeName": "M\u00e4nnedorf", "adminCode3": "155"}, "8400": {"postalCode": "8400", "adminName1": "Kanton Z\u00fcrich", "adminCode1": "ZH", "adminCode2": "110", "lat": 47.491625908999936, "adminName3": "Winterthur", "adminName2": "Bezirk Winterthur", "lng": 8.729533718270112, "countryCode": "CH", "placeName": "Winterthur", "adminCode3": "230"}, "1231": {"postalCode": "1231", "adminName1": "Canton de Gen\u00e8ve", "adminCode1": "GE", "adminCode2": "2500", "lat": 46.18479625577573, "adminName3": "Ch\u00eane-Bougeries", "adminName2": "Geneva", "lng": 6.17983134020857, "countryCode": "CH", "placeName": "Conches", "adminCode3": "6612"}, "8645": {"postalCode": "8645", "adminName1": "Kanton St. Gallen", "adminCode1": "SG", "adminCode2": "1726", "lat": 47.22962978837847, "adminName3": "Rapperswil-Jona", "adminName2": "Wahlkreis See-Gaster", "lng": 8.851572785975815, "countryCode": "CH", "placeName": "Jona", "adminCode3": "3340"}, "1875": {"postalCode": "1875", "adminName1": "Canton du Valais", "adminCode1": "VS", "adminCode2": "2308", "lat": 46.24106458749834, "adminName3": "Troistorrents", "adminName2": "District de Monthey", "lng": 6.868622267595753, "countryCode": "CH", "placeName": "Morgins", "adminCode3": "6156"}, "6300": {"postalCode": "6300", "adminName1": "Kanton Zug", "adminCode1": "ZG", "adminCode2": "900", "lat": 47.16856601916382, "adminName3": "Zug", "adminName2": "Zug", "lng": 8.514547066962207, "countryCode": "CH", "placeName": "Zug", "adminCode3": "1711"}, "5405": {"postalCode": "5405", "adminName1": "Kanton Aargau", "adminCode1": "AG", "adminCode2": "1902", "lat": 47.45452160621742, "adminName3": "Baden", "adminName2": "Bezirk Baden", "lng": 8.28427338447086, "countryCode": "CH", "placeName": "D\u00e4ttwil AG", "adminCode3": "4021"}, "1292": {"postalCode": "1292", "adminName1": "Canton de Gen\u00e8ve", "adminCode1": "GE", "adminCode2": "2500", "lat": 46.24016074569349, "adminName3": "Pregny-Chamb\u00e9sy", "adminName2": "Geneva", "lng": 6.139974687089783, "countryCode": "CH", "placeName": "Chamb\u00e9sy", "adminCode3": "6634"}, "6924": {"postalCode": "6924", "adminName1": "Cantone Ticino", "adminCode1": "TI", "adminCode2": "2105", "lat": 46.00082465297247, "adminName3": "Sorengo", "adminName2": "Distretto di Lugano", "lng": 8.934970754748727, "countryCode": "CH", "placeName": "Sorengo", "adminCode3": "5225"}, "6984": {"postalCode": "6984", "adminName1": "Cantone Ticino", "adminCode1": "TI", "adminCode2": "2105", "lat": 45.982129444233195, "adminName3": "Pura", "adminName2": "Distretto di Lugano", "lng": 8.86424024658031, "countryCode": "CH", "placeName": "Pura", "adminCode3": "5216"}, "1005": {"postalCode": "1005", "adminName1": "Canton de Vaud", "adminCode1": "VD", "adminCode2": "2225", "lat": 46.51985187849131, "adminName3": "Lausanne", "adminName2": "District de Lausanne", "lng": 6.642521825107101, "countryCode": "CH", "placeName": "Lausanne", "adminCode3": "5586"}, "1143": {"postalCode": "1143", "adminName1": "Canton de Vaud", "adminCode1": "VD", "adminCode2": "2227", "lat": 46.55549408051499, "adminName3": "Apples", "adminName2": "District de Morges", "lng": 6.418670718076979, "countryCode": "CH", "placeName": "Apples", "adminCode3": "5421"}, "1454": {"postalCode": "1454", "adminName1": "Canton de Vaud", "adminCode1": "VD", "adminCode2": "2224", "lat": 46.813964999732924, "adminName3": "Sainte-Croix", "adminName2": "District du Jura-Nord vaudois", "lng": 6.462854743913092, "countryCode": "CH", "placeName": "L'Auberson", "adminCode3": "5568"}, "1185": {"postalCode": "1185", "adminName1": "Canton de Vaud", "adminCode1": "VD", "adminCode2": "2228", "lat": 46.477520924879556, "adminName3": "Mont-sur-Rolle", "adminName2": "District de Nyon", "lng": 6.337695255290011, "countryCode": "CH", "placeName": "Mont-sur-Rolle", "adminCode3": "5859"}, "1763": {"postalCode": "1763", "adminName1": "Canton de Fribourg", "adminCode1": "FR", "adminCode2": "1004", "lat": 46.82239861758873, "adminName3": "Granges-Paccot", "adminName2": "District de la Sarine", "lng": 7.153724564789587, "countryCode": "CH", "placeName": "Granges-Paccot", "adminCode3": "2198"}, "1860": {"postalCode": "1860", "adminName1": "Canton de Vaud", "adminCode1": "VD", "adminCode2": "2221", "lat": 46.31385317589959, "adminName3": "Aigle", "adminName2": "District d'Aigle", "lng": 6.968976576716202, "countryCode": "CH", "placeName": "Aigle", "adminCode3": "5401"}, "8303": {"postalCode": "8303", "adminName1": "Kanton Z\u00fcrich", "adminCode1": "ZH", "adminCode2": "103", "lat": 47.440213260095945, "adminName3": "Bassersdorf", "adminName2": "Bezirk B\u00fclach", "lng": 8.625904282944857, "countryCode": "CH", "placeName": "Bassersdorf", "adminCode3": "52"}, "3930": {"postalCode": "3930", "adminName1": "Canton du Valais", "adminCode1": "VS", "adminCode2": "2313", "lat": 46.287037593340294, "adminName3": "Visp", "adminName2": "Bezirk Visp", "lng": 7.866906827130107, "countryCode": "CH", "placeName": "Visp", "adminCode3": "6297"}, "6523": {"postalCode": "6523", "adminName1": "Cantone Ticino", "adminCode1": "TI", "adminCode2": "2101", "lat": 46.24983185556274, "adminName3": "Preonzo", "adminName2": "Distretto di Bellinzona", "lng": 8.976484742262892, "countryCode": "CH", "placeName": "Preonzo", "adminCode3": "5015"}, "1936": {"postalCode": "1936", "adminName1": "Canton du Valais", "adminCode1": "VS", "adminCode2": "2303", "lat": 46.09838323828144, "adminName3": "Bagnes", "adminName2": "District d'Entremont", "lng": 7.225237878309935, "countryCode": "CH", "placeName": "Verbier", "adminCode3": "6031"}, "8855": {"postalCode": "8855", "adminName1": "Kanton Schwyz", "adminCode1": "SZ", "adminCode2": "505", "lat": 47.19884380269042, "adminName3": "Wangen (SZ)", "adminName2": "Bezirk March", "lng": 8.886423523344689, "countryCode": "CH", "placeName": "Wangen SZ", "adminCode3": "1349"}, "6342": {"postalCode": "6342", "adminName1": "Kanton Zug", "adminCode1": "ZG", "adminCode2": "900", "lat": 47.2, "adminName3": "Baar", "adminName2": "Zug", "lng": 8.5166667, "countryCode": "CH", "placeName": "Baar", "adminCode3": "1701"}, "7323": {"postalCode": "7323", "adminName1": "Kanton St. Gallen", "adminCode1": "SG", "adminCode2": "1725", "lat": 47.00270502660014, "adminName3": "Vilters-Wangs", "adminName2": "Wahlkreis Sargans", "lng": 9.412192946497118, "countryCode": "CH", "placeName": "Wangs", "adminCode3": "3297"}, "8023": {"postalCode": "8023", "adminName1": "Kanton Z\u00fcrich", "adminCode1": "ZH", "adminCode2": "112", "lat": 47.374755357727054, "adminName3": "Z\u00fcrich", "adminName2": "Bezirk Z\u00fcrich", "lng": 8.538086142837525, "countryCode": "CH", "placeName": "Z\u00fcrich", "adminCode3": "261"}, "1018": {"postalCode": "1018", "adminName1": "Canton de Vaud", "adminCode1": "VD", "adminCode2": "2225", "lat": 46.538753364468604, "adminName3": "Lausanne", "adminName2": "District de Lausanne", "lng": 6.628646078829074, "countryCode": "CH", "placeName": "Lausanne", "adminCode3": "5586"}, "1277": {"postalCode": "1277", "adminName1": "Canton de Vaud", "adminCode1": "VD", "adminCode2": "2228", "lat": 46.38047012214977, "adminName3": "Borex", "adminName2": "District de Nyon", "lng": 6.182515782589777, "countryCode": "CH", "placeName": "Borex", "adminCode3": "5706"}, "8342": {"postalCode": "8342", "adminName1": "Kanton Z\u00fcrich", "adminCode1": "ZH", "adminCode2": "105", "lat": 47.29057434307648, "adminName3": "Hinwil", "adminName2": "Bezirk Hinwil", "lng": 8.878030002586186, "countryCode": "CH", "placeName": "Wernetshausen", "adminCode3": "117"}, "1052": {"postalCode": "1052", "adminName1": "Canton de Vaud", "adminCode1": "VD", "adminCode2": "2225", "lat": 46.559929866211505, "adminName3": "Le Mont-sur-Lausanne", "adminName2": "District de Lausanne", "lng": 6.640040065509103, "countryCode": "CH", "placeName": "Le Mont-sur-Lausanne", "adminCode3": "5587"}, "6535": {"postalCode": "6535", "adminName1": "Kanton Graub\u00fcnden", "adminCode1": "GR", "adminCode2": "1828", "lat": 46.20131321714433, "adminName3": "Roveredo (GR)", "adminName2": "Distretto di Moesa", "lng": 9.150708849078985, "countryCode": "CH", "placeName": "Roveredo GR", "adminCode3": "3834"}, "1951": {"postalCode": "1951", "adminName1": "Canton du Valais", "adminCode1": "VS", "adminCode2": "2312", "lat": 46.2333333, "adminName3": "Sion", "adminName2": "District de Sion", "lng": 7.35, "countryCode": "CH", "placeName": "Sion", "adminCode3": "6266"}, "1705": {"postalCode": "1705", "adminName1": "Canton de Fribourg", "adminCode1": "FR", "adminCode2": "1004", "lat": 46.8, "adminName3": "Fribourg", "adminName2": "District de la Sarine", "lng": 7.15, "countryCode": "CH", "placeName": "Fribourg", "adminCode3": "2196"}, "1222": {"postalCode": "1222", "adminName1": "Canton de Gen\u00e8ve", "adminCode1": "GE", "adminCode2": "2500", "lat": 46.23834028573584, "adminName3": "Collonge-Bellerive", "adminName2": "Geneva", "lng": 6.2087883684509775, "countryCode": "CH", "placeName": "V\u00e9senaz", "adminCode3": "6616"}, "6901": {"postalCode": "6901", "adminName1": "Cantone Ticino", "adminCode1": "TI", "adminCode2": "2105", "lat": 46.000339508056655, "adminName3": "Lugano", "adminName2": "Distretto di Lugano", "lng": 8.951216595458984, "countryCode": "CH", "placeName": "Lugano", "adminCode3": "5192"}, "8607": {"postalCode": "8607", "adminName1": "Kanton Z\u00fcrich", "adminCode1": "ZH", "adminCode2": "105", "lat": 47.343106533487216, "adminName3": "Seegr\u00e4ben", "adminName2": "Bezirk Hinwil", "lng": 8.767336071734219, "countryCode": "CH", "placeName": "Aathal-Seegr\u00e4ben", "adminCode3": "119"}, "8173": {"postalCode": "8173", "adminName1": "Kanton Z\u00fcrich", "adminCode1": "ZH", "adminCode2": "104", "lat": 47.50699944228282, "adminName3": "Neerach", "adminName2": "Bezirk Dielsdorf", "lng": 8.475265426055417, "countryCode": "CH", "placeName": "Neerach", "adminCode3": "88"}, "2006": {"postalCode": "2006", "adminName1": "Canton de Neuch\u00e2tel", "adminCode1": "NE", "adminCode2": "2404", "lat": 47, "adminName3": "Neuch\u00e2tel", "adminName2": "District de Neuch\u00e2tel", "lng": 6.9666667, "countryCode": "CH", "placeName": "Neuch\u00e2tel 6", "adminCode3": "6458"}, "6925": {"postalCode": "6925", "adminName1": "Cantone Ticino", "adminCode1": "TI", "adminCode2": "2105", "lat": 45.991468805845265, "adminName3": "Collina d'Oro", "adminName2": "Distretto di Lugano", "lng": 8.925382337283061, "countryCode": "CH", "placeName": "Gentilino", "adminCode3": "5236"}, "6602": {"postalCode": "6602", "adminName1": "Cantone Ticino", "adminCode1": "TI", "adminCode2": "2104", "lat": 46.1666667, "adminName3": "Muralto", "adminName2": "Distretto di Locarno", "lng": 8.79666666, "countryCode": "CH", "placeName": "Muralto", "adminCode3": "5120"}, "3074": {"postalCode": "3074", "adminName1": "Kanton Bern", "adminCode1": "BE", "adminCode2": "246", "lat": 46.92660629201038, "adminName3": "Muri bei Bern", "adminName2": "Bern-Mittleland", "lng": 7.486374025281926, "countryCode": "CH", "placeName": "Muri b. Bern", "adminCode3": "356"}, "1253": {"postalCode": "1253", "adminName1": "Canton de Gen\u00e8ve", "adminCode1": "GE", "adminCode2": "2500", "lat": 46.22118543783205, "adminName3": "Vandoeuvres", "adminName2": "Geneva", "lng": 6.205663818144805, "countryCode": "CH", "placeName": "Vandoeuvres", "adminCode3": "6642"}, "6315": {"postalCode": "6315", "adminName1": "Kanton Zug", "adminCode1": "ZG", "adminCode2": "900", "lat": 47.13692051855035, "adminName3": "Ober\u00e4geri", "adminName2": "Zug", "lng": 8.61192754976622, "countryCode": "CH", "placeName": "Ober\u00e4geri", "adminCode3": "1706"}, "2074": {"postalCode": "2074", "adminName1": "Canton de Neuch\u00e2tel", "adminCode1": "NE", "adminCode2": "2404", "lat": 47.010058580848465, "adminName3": "La T\u00e8ne", "adminName2": "District de Neuch\u00e2tel", "lng": 7.012195857626755, "countryCode": "CH", "placeName": "Marin-Epagnier", "adminCode3": "6461"}, "6045": {"postalCode": "6045", "adminName1": "Kanton Luzern", "adminCode1": "LU", "adminCode2": "303", "lat": 47.05044856703918, "adminName3": "Meggen", "adminName2": "Amt Luzern", "lng": 8.370940860822847, "countryCode": "CH", "placeName": "Meggen", "adminCode3": "1063"}, "1094": {"postalCode": "1094", "adminName1": "Canton de Vaud", "adminCode1": "VD", "adminCode2": "2226", "lat": 46.508413999199156, "adminName3": "Paudex", "adminName2": "District de Lavaux-Oron", "lng": 6.67332224274197, "countryCode": "CH", "placeName": "Paudex", "adminCode3": "5588"}, "2008": {"postalCode": "2008", "adminName1": "Canton de Neuch\u00e2tel", "adminCode1": "NE", "adminCode2": "2404", "lat": 47, "adminName3": "Neuch\u00e2tel", "adminName2": "District de Neuch\u00e2tel", "lng": 6.9666667, "countryCode": "CH", "placeName": "Neuch\u00e2tel", "adminCode3": "6458"}, "1226": {"postalCode": "1226", "adminName1": "Canton de Gen\u00e8ve", "adminCode1": "GE", "adminCode2": "2500", "lat": 46.19092482869108, "adminName3": "Th\u00f4nex", "adminName2": "Geneva", "lng": 6.19750980036922, "countryCode": "CH", "placeName": "Th\u00f4nex", "adminCode3": "6640"}, "8852": {"postalCode": "8852", "adminName1": "Kanton Schwyz", "adminCode1": "SZ", "adminCode2": "505", "lat": 47.17825387749714, "adminName3": "Altendorf", "adminName2": "Bezirk March", "lng": 8.825608813413412, "countryCode": "CH", "placeName": "Altendorf", "adminCode3": "1341"}, "7250": {"postalCode": "7250", "adminName1": "Kanton Graub\u00fcnden", "adminCode1": "GR", "adminCode2": "1830", "lat": 46.83703738957789, "adminName3": "Klosters-Serneus", "adminName2": "Bezirk Pr\u00e4ttigau-Davos", "lng": 9.976394682329644, "countryCode": "CH", "placeName": "Klosters", "adminCode3": "3871"}, "9400": {"postalCode": "9400", "adminName1": "Kanton St. Gallen", "adminCode1": "SG", "adminCode2": "1722", "lat": 47.47545585994852, "adminName3": "Rorschach", "adminName2": "Wahlkreis Rorschach", "lng": 9.493845513556682, "countryCode": "CH", "placeName": "Rorschach", "adminCode3": "3215"}, "1216": {"postalCode": "1216", "adminName1": "Canton de Gen\u00e8ve", "adminCode1": "GE", "adminCode2": "2500", "lat": 46.22469586287923, "adminName3": "Meyrin", "adminName2": "Geneva", "lng": 6.106835725529546, "countryCode": "CH", "placeName": "Cointrin", "adminCode3": "6630"}, "9500": {"postalCode": "9500", "adminName1": "Kanton St. Gallen", "adminCode1": "SG", "adminCode2": "1728", "lat": 47.451926343659025, "adminName3": "Wil (SG)", "adminName2": "Wahlkreis Wil", "lng": 9.052530151656963, "countryCode": "CH", "placeName": "Wil SG", "adminCode3": "3425"}, "6330": {"postalCode": "6330", "adminName1": "Kanton Zug", "adminCode1": "ZG", "adminCode2": "900", "lat": 47.19618222034077, "adminName3": "Cham", "adminName2": "Zug", "lng": 8.453140167402273, "countryCode": "CH", "placeName": "Cham", "adminCode3": "1702"}, "6805": {"postalCode": "6805", "adminName1": "Cantone Ticino", "adminCode1": "TI", "adminCode2": "2105", "lat": 46.091637683127, "adminName3": "Mezzovico-Vira", "adminName2": "Distretto di Lugano", "lng": 8.893560454949142, "countryCode": "CH", "placeName": "Mezzovico", "adminCode3": "5199"}, "6005": {"postalCode": "6005", "adminName1": "Kanton Luzern", "adminCode1": "LU", "adminCode2": "303", "lat": 47.034153601943466, "adminName3": "Luzern", "adminName2": "Amt Luzern", "lng": 8.31784411057702, "countryCode": "CH", "placeName": "Luzern", "adminCode3": "1061"}, "8700": {"postalCode": "8700", "adminName1": "Kanton Z\u00fcrich", "adminCode1": "ZH", "adminCode2": "107", "lat": 47.31957392558347, "adminName3": "K\u00fcsnacht (ZH)", "adminName2": "Bezirk Meilen", "lng": 8.589884186603644, "countryCode": "CH", "placeName": "K\u00fcsnacht ZH", "adminCode3": "154"}, "6932": {"postalCode": "6932", "adminName1": "Cantone Ticino", "adminCode1": "TI", "adminCode2": "2105", "lat": 46.00915482568325, "adminName3": "Lugano", "adminName2": "Distretto di Lugano", "lng": 8.927593651562876, "countryCode": "CH", "placeName": "Breganzona", "adminCode3": "5192"}, "8203": {"postalCode": "8203", "adminName1": "Kanton Schaffhausen", "adminCode1": "SH", "adminCode2": "1403", "lat": 47.699299415189884, "adminName3": "Schaffhausen", "adminName2": "Bezirk Schaffhausen", "lng": 8.661169635217304, "countryCode": "CH", "placeName": "Schaffhausen", "adminCode3": "2939"}, "6341": {"postalCode": "6341", "adminName1": "Kanton Zug", "adminCode1": "ZG", "adminCode2": "900", "lat": 47.2, "adminName3": "Baar", "adminName2": "Zug", "lng": 8.5166667, "countryCode": "CH", "placeName": "Baar", "adminCode3": "1701"}, "1001": {"postalCode": "1001", "adminName1": "Canton de Vaud", "adminCode1": "VD", "adminCode2": "2225", "lat": 46.522400000000005, "adminName3": "Lausanne", "adminName2": "District de Lausanne", "lng": 6.6302666666666665, "countryCode": "CH", "placeName": "Lausanne", "adminCode3": "5586"}, "1938": {"postalCode": "1938", "adminName1": "Canton du Valais", "adminCode1": "VS", "adminCode2": "2303", "lat": 46.038324063499154, "adminName3": "Orsi\u00e8res", "adminName2": "District d'Entremont", "lng": 7.096139686971915, "countryCode": "CH", "placeName": "Champex-Lac", "adminCode3": "6034"}, "1260": {"postalCode": "1260", "adminName1": "Canton de Vaud", "adminCode1": "VD", "adminCode2": "2228", "lat": 46.382942730332815, "adminName3": "Nyon", "adminName2": "District de Nyon", "lng": 6.2269451529690585, "countryCode": "CH", "placeName": "Nyon", "adminCode3": "5724"}, "6906": {"postalCode": "6906", "adminName1": "Cantone Ticino", "adminCode1": "TI", "adminCode2": "2105", "lat": 46.01172505877123, "adminName3": "Lugano", "adminName2": "Distretto di Lugano", "lng": 8.957527923583985, "countryCode": "CH", "placeName": "Lugano 6 Cassarate Caselle", "adminCode3": "5192"}, "4002": {"postalCode": "4002", "adminName1": "Kanton Basel-Stadt", "adminCode1": "BS", "adminCode2": "1200", "lat": 47.548821220814084, "adminName3": "Basel", "adminName2": "Basel-Stadt", "lng": 7.590396542427758, "countryCode": "CH", "placeName": "Basel", "adminCode3": "2701"}, "4410": {"postalCode": "4410", "adminName1": "Kanton Basel-Landschaft", "adminCode1": "BL", "adminCode2": "1303", "lat": 47.482950397488004, "adminName3": "Liestal", "adminName2": "Bezirk Liestal", "lng": 7.725441784503023, "countryCode": "CH", "placeName": "Liestal", "adminCode3": "2829"}, "3006": {"postalCode": "3006", "adminName1": "Kanton Bern", "adminCode1": "BE", "adminCode2": "246", "lat": 46.945807217044894, "adminName3": "Bern", "adminName2": "Bern-Mittleland", "lng": 7.471272567005227, "countryCode": "CH", "placeName": "Bern", "adminCode3": "351"}, "4665": {"postalCode": "4665", "adminName1": "Kanton Aargau", "adminCode1": "AG", "adminCode2": "1910", "lat": 47.31309838805327, "adminName3": "Oftringen", "adminName2": "Bezirk Zofingen", "lng": 7.942394388885759, "countryCode": "CH", "placeName": "Oftringen", "adminCode3": "4280"}, "8032": {"postalCode": "8032", "adminName1": "Kanton Z\u00fcrich", "adminCode1": "ZH", "adminCode2": "112", "lat": 47.36669049428166, "adminName3": "Z\u00fcrich", "adminName2": "Bezirk Z\u00fcrich", "lng": 8.564421733243874, "countryCode": "CH", "placeName": "Z\u00fcrich", "adminCode3": "261"}, "2000": {"postalCode": "2000", "adminName1": "Canton de Neuch\u00e2tel", "adminCode1": "NE", "adminCode2": "2404", "lat": 47.00085984454894, "adminName3": "Neuch\u00e2tel", "adminName2": "District de Neuch\u00e2tel", "lng": 6.927434731654612, "countryCode": "CH", "placeName": "Neuch\u00e2tel", "adminCode3": "6458"}, "1515": {"postalCode": "1515", "adminName1": "Canton de Vaud", "adminCode1": "VD", "adminCode2": "2222", "lat": 46.71309661379914, "adminName3": "Villars-le-Comte", "adminName2": "District de la Broye-Vully", "lng": 6.801357540139832, "countryCode": "CH", "placeName": "Villars-le-Comte", "adminCode3": "5690"}, "6900": {"postalCode": "6900", "adminName1": "Cantone Ticino", "adminCode1": "TI", "adminCode2": "2105", "lat": 46.01337990625888, "adminName3": "Lugano", "adminName2": "Distretto di Lugano", "lng": 8.954154651086828, "countryCode": "CH", "placeName": "Lugano", "adminCode3": "5192"}, "1202": {"postalCode": "1202", "adminName1": "Canton de Gen\u00e8ve", "adminCode1": "GE", "adminCode2": "2500", "lat": 46.22139376974775, "adminName3": "Gen\u00e8ve", "adminName2": "Geneva", "lng": 6.1431448907598, "countryCode": "CH", "placeName": "Gen\u00e8ve", "adminCode3": "6621"}, "1884": {"postalCode": "1884", "adminName1": "Canton de Vaud", "adminCode1": "VD", "adminCode2": "2221", "lat": 46.313650887074296, "adminName3": "Ollon", "adminName2": "District d'Aigle", "lng": 7.098098936319746, "countryCode": "CH", "placeName": "Villars-sur-Ollon", "adminCode3": "5409"}, "1297": {"postalCode": "1297", "adminName1": "Canton de Vaud", "adminCode1": "VD", "adminCode2": "2228", "lat": 46.33616432231096, "adminName3": "Founex", "adminName2": "District de Nyon", "lng": 6.183632400929183, "countryCode": "CH", "placeName": "Founex", "adminCode3": "5717"}, "8034": {"postalCode": "8034", "adminName1": "Kanton Z\u00fcrich", "adminCode1": "ZH", "adminCode2": "112", "lat": 47.3666667, "adminName3": "Z\u00fcrich", "adminName2": "Bezirk Z\u00fcrich", "lng": 8.55, "countryCode": "CH", "placeName": "Z\u00fcrich", "adminCode3": "261"}, "3953": {"postalCode": "3953", "adminName1": "Canton du Valais", "adminCode1": "VS", "adminCode2": "2306", "lat": 46.320431252012234, "adminName3": "Varen", "adminName2": "Bezirk Leuk", "lng": 7.592875786447583, "countryCode": "CH", "placeName": "Varen", "adminCode3": "6116"}, "1800": {"postalCode": "1800", "adminName1": "Canton de Vaud", "adminCode1": "VD", "adminCode2": "2230", "lat": 46.46720774447701, "adminName3": "Vevey", "adminName2": "District de la Riviera-Pays-d'Enhaut", "lng": 6.843403154762805, "countryCode": "CH", "placeName": "Vevey", "adminCode3": "5890"}, "1709": {"postalCode": "1709", "adminName1": "Canton de Fribourg", "adminCode1": "FR", "adminCode2": "1004", "lat": 46.8, "adminName3": "Fribourg", "adminName2": "District de la Sarine", "lng": 7.15, "countryCode": "CH", "placeName": "Fribourg", "adminCode3": "2196"}, "2009": {"postalCode": "2009", "adminName1": "Canton de Neuch\u00e2tel", "adminCode1": "NE", "adminCode2": "2404", "lat": 47, "adminName3": "Neuch\u00e2tel", "adminName2": "District de Neuch\u00e2tel", "lng": 6.9666667, "countryCode": "CH", "placeName": "Neuch\u00e2tel 9", "adminCode3": "6458"}, "1247": {"postalCode": "1247", "adminName1": "Canton de Gen\u00e8ve", "adminCode1": "GE", "adminCode2": "2500", "lat": 46.27698566767331, "adminName3": "Ani\u00e8res", "adminName2": "Geneva", "lng": 6.2325655006806375, "countryCode": "CH", "placeName": "Ani\u00e8res", "adminCode3": "6602"}, "1219": {"postalCode": "1219", "adminName1": "Canton de Gen\u00e8ve", "adminCode1": "GE", "adminCode2": "2500", "lat": 46.212215478816425, "adminName3": "Vernier", "adminName2": "Geneva", "lng": 6.1097462545758985, "countryCode": "CH", "placeName": "Ch\u00e2telaine", "adminCode3": "6643"}, "6982": {"postalCode": "6982", "adminName1": "Cantone Ticino", "adminCode1": "TI", "adminCode2": "2105", "lat": 46.003608320065275, "adminName3": "Agno", "adminName2": "Distretto di Lugano", "lng": 8.903235113098749, "countryCode": "CH", "placeName": "Agno", "adminCode3": "5141"}, "2525": {"postalCode": "2525", "adminName1": "Canton de Neuch\u00e2tel", "adminCode1": "NE", "adminCode2": "2404", "lat": 47.06004440317738, "adminName3": "Le Landeron", "adminName2": "District de Neuch\u00e2tel", "lng": 7.063488249850421, "countryCode": "CH", "placeName": "Le Landeron", "adminCode3": "6455"}, "6003": {"postalCode": "6003", "adminName1": "Kanton Luzern", "adminCode1": "LU", "adminCode2": "303", "lat": 47.05009829154939, "adminName3": "Luzern", "adminName2": "Amt Luzern", "lng": 8.297034358058342, "countryCode": "CH", "placeName": "Luzern", "adminCode3": "1061"}, "9248": {"postalCode": "9248", "adminName1": "Kanton St. Gallen", "adminCode1": "SG", "adminCode2": "1728", "lat": 47.415114069509166, "adminName3": "Oberuzwil", "adminName2": "Wahlkreis Wil", "lng": 9.137622539028449, "countryCode": "CH", "placeName": "Bichwil", "adminCode3": "3407"}, "6052": {"postalCode": "6052", "adminName1": "Kanton Nidwalden", "adminCode1": "NW", "adminCode2": "700", "lat": 46.986196190109425, "adminName3": "Hergiswil (NW)", "adminName2": "Nidwalden", "lng": 8.296683488304025, "countryCode": "CH", "placeName": "Hergiswil NW", "adminCode3": "1507"}, "6928": {"postalCode": "6928", "adminName1": "Cantone Ticino", "adminCode1": "TI", "adminCode2": "2105", "lat": 46.03053279190221, "adminName3": "Manno", "adminName2": "Distretto di Lugano", "lng": 8.917971826587914, "countryCode": "CH", "placeName": "Manno", "adminCode3": "5194"}, "8467": {"postalCode": "8467", "adminName1": "Kanton Z\u00fcrich", "adminCode1": "ZH", "adminCode2": "102", "lat": 47.63180779137192, "adminName3": "Truttikon", "adminName2": "Bezirk Andelfingen", "lng": 8.729060488184126, "countryCode": "CH", "placeName": "Truttikon", "adminCode3": "41"}, "1815": {"postalCode": "1815", "adminName1": "Canton de Vaud", "adminCode1": "VD", "adminCode2": "2230", "lat": 46.4463202266474, "adminName3": "Montreux", "adminName2": "District de la Riviera-Pays-d'Enhaut", "lng": 6.889885116598762, "countryCode": "CH", "placeName": "Clarens", "adminCode3": "5886"}, "8200": {"postalCode": "8200", "adminName1": "Kanton Schaffhausen", "adminCode1": "SH", "adminCode2": "1403", "lat": 47.715139127741764, "adminName3": "Schaffhausen", "adminName2": "Bezirk Schaffhausen", "lng": 8.621979828444058, "countryCode": "CH", "placeName": "Schaffhausen", "adminCode3": "2939"}, "1252": {"postalCode": "1252", "adminName1": "Canton de Gen\u00e8ve", "adminCode1": "GE", "adminCode2": "2500", "lat": 46.241608821744585, "adminName3": "Meinier", "adminName2": "Geneva", "lng": 6.235762264799253, "countryCode": "CH", "placeName": "Meinier", "adminCode3": "6629"}, "1262": {"postalCode": "1262", "adminName1": "Canton de Vaud", "adminCode1": "VD", "adminCode2": "2228", "lat": 46.37947169491794, "adminName3": "Eysins", "adminName2": "District de Nyon", "lng": 6.205443839910474, "countryCode": "CH", "placeName": "Eysins", "adminCode3": "5716"}, "8126": {"postalCode": "8126", "adminName1": "Kanton Z\u00fcrich", "adminCode1": "ZH", "adminCode2": "107", "lat": 47.33589627850109, "adminName3": "Zumikon", "adminName2": "Bezirk Meilen", "lng": 8.625818465203606, "countryCode": "CH", "placeName": "Zumikon", "adminCode3": "160"}, "1248": {"postalCode": "1248", "adminName1": "Canton de Gen\u00e8ve", "adminCode1": "GE", "adminCode2": "2500", "lat": 46.29454572466546, "adminName3": "Hermance", "adminName2": "Geneva", "lng": 6.244284831067216, "countryCode": "CH", "placeName": "Hermance", "adminCode3": "6625"}, "6331": {"postalCode": "6331", "adminName1": "Kanton Zug", "adminCode1": "ZG", "adminCode2": "900", "lat": 47.17787775608309, "adminName3": "H\u00fcnenberg", "adminName2": "Zug", "lng": 8.420839868483172, "countryCode": "CH", "placeName": "H\u00fcnenberg", "adminCode3": "1703"}, "8021": {"postalCode": "8021", "adminName1": "Kanton Z\u00fcrich", "adminCode1": "ZH", "adminCode2": "112", "lat": 47.3666667, "adminName3": "Z\u00fcrich", "adminName2": "Bezirk Z\u00fcrich", "lng": 8.55, "countryCode": "CH", "placeName": "Z\u00fcrich 1 Sihlpost", "adminCode3": "261"}, "1284": {"postalCode": "1284", "adminName1": "Canton de Gen\u00e8ve", "adminCode1": "GE", "adminCode2": "2500", "lat": 46.14872237671346, "adminName3": "Chancy", "adminName2": "Geneva", "lng": 5.980760953035497, "countryCode": "CH", "placeName": "Chancy", "adminCode3": "6611"}, "6312": {"postalCode": "6312", "adminName1": "Kanton Zug", "adminCode1": "ZG", "adminCode2": "900", "lat": 47.19878967305682, "adminName3": "Steinhausen", "adminName2": "Zug", "lng": 8.48642256201808, "countryCode": "CH", "placeName": "Steinhausen", "adminCode3": "1708"}, "1207": {"postalCode": "1207", "adminName1": "Canton de Gen\u00e8ve", "adminCode1": "GE", "adminCode2": "2500", "lat": 46.20575504797517, "adminName3": "Gen\u00e8ve", "adminName2": "Geneva", "lng": 6.161891861525215, "countryCode": "CH", "placeName": "Gen\u00e8ve", "adminCode3": "6621"}, "1134": {"postalCode": "1134", "adminName1": "Canton de Vaud", "adminCode1": "VD", "adminCode2": "2227", "lat": 46.52354309610607, "adminName3": "Vufflens-le-Ch\u00e2teau", "adminName2": "District de Morges", "lng": 6.470481701590391, "countryCode": "CH", "placeName": "Vufflens-le-Ch\u00e2teau", "adminCode3": "5653"}, "6612": {"postalCode": "6612", "adminName1": "Cantone Ticino", "adminCode1": "TI", "adminCode2": "2104", "lat": 46.156194680665465, "adminName3": "Ascona", "adminName2": "Distretto di Locarno", "lng": 8.76610094230149, "countryCode": "CH", "placeName": "Ascona", "adminCode3": "5091"}, "1294": {"postalCode": "1294", "adminName1": "Canton de Gen\u00e8ve", "adminCode1": "GE", "adminCode2": "2500", "lat": 46.266095060902856, "adminName3": "Genthod", "adminName2": "Geneva", "lng": 6.1538190074994406, "countryCode": "CH", "placeName": "Genthod", "adminCode3": "6622"}, "8022": {"postalCode": "8022", "adminName1": "Kanton Z\u00fcrich", "adminCode1": "ZH", "adminCode2": "112", "lat": 47.3674363922119, "adminName3": "Z\u00fcrich", "adminName2": "Bezirk Z\u00fcrich", "lng": 8.53735346069336, "countryCode": "CH", "placeName": "Z\u00fcrich", "adminCode3": "261"}, "8050": {"postalCode": "8050", "adminName1": "Kanton Z\u00fcrich", "adminCode1": "ZH", "adminCode2": "112", "lat": 47.411942091538194, "adminName3": "Z\u00fcrich", "adminName2": "Bezirk Z\u00fcrich", "lng": 8.550788615626706, "countryCode": "CH", "placeName": "Z\u00fcrich", "adminCode3": "261"}, "1268": {"postalCode": "1268", "adminName1": "Canton de Vaud", "adminCode1": "VD", "adminCode2": "2228", "lat": 46.44570900858049, "adminName3": "Begnins", "adminName2": "District de Nyon", "lng": 6.24780957872915, "countryCode": "CH", "placeName": "Begnins", "adminCode3": "5704"}, "1025": {"postalCode": "1025", "adminName1": "Canton de Vaud", "adminCode1": "VD", "adminCode2": "2229", "lat": 46.513408804786934, "adminName3": "Saint-Sulpice (VD)", "adminName2": "District de l'Ouest lausannois", "lng": 6.557109571091102, "countryCode": "CH", "placeName": "St-Sulpice VD", "adminCode3": "5648"}, "1274": {"postalCode": "1274", "adminName1": "Canton de Vaud", "adminCode1": "VD", "adminCode2": "2228", "lat": 46.39610392114602, "adminName3": "Grens", "adminName2": "District de Nyon", "lng": 6.1912298260020195, "countryCode": "CH", "placeName": "Grens", "adminCode3": "5722"}, "1264": {"postalCode": "1264", "adminName1": "Canton de Vaud", "adminCode1": "VD", "adminCode2": "2228", "lat": 46.45089375212618, "adminName3": "Saint-Cergue", "adminName2": "District de Nyon", "lng": 6.148587827497891, "countryCode": "CH", "placeName": "St-Cergue", "adminCode3": "5727"}, "1630": {"postalCode": "1630", "adminName1": "Canton de Fribourg", "adminCode1": "FR", "adminCode2": "1003", "lat": 46.587099492336016, "adminName3": "Bulle", "adminName2": "District de la Gruy\u00e8re", "lng": 6.998069069092155, "countryCode": "CH", "placeName": "Bulle", "adminCode3": "2125"}, "9001": {"postalCode": "9001", "adminName1": "Kanton St. Gallen", "adminCode1": "SG", "adminCode2": "1721", "lat": 47.423122639160155, "adminName3": "St. Gallen", "adminName2": "Wahlkreis St. Gallen", "lng": 9.373345289916992, "countryCode": "CH", "placeName": "St. Gallen", "adminCode3": "3203"}, "1218": {"postalCode": "1218", "adminName1": "Canton de Gen\u00e8ve", "adminCode1": "GE", "adminCode2": "2500", "lat": 46.234107977577224, "adminName3": "Le Grand-Saconnex", "adminName2": "Geneva", "lng": 6.123835459810972, "countryCode": "CH", "placeName": "Le Grand-Saconnex", "adminCode3": "6623"}, "1208": {"postalCode": "1208", "adminName1": "Canton de Gen\u00e8ve", "adminCode1": "GE", "adminCode2": "2500", "lat": 46.19939450003817, "adminName3": "Gen\u00e8ve", "adminName2": "Geneva", "lng": 6.165889228628883, "countryCode": "CH", "placeName": "Gen\u00e8ve", "adminCode3": "6621"}, "4450": {"postalCode": "4450", "adminName1": "Kanton Basel-Landschaft", "adminCode1": "BL", "adminCode2": "1304", "lat": 47.472974714923936, "adminName3": "Sissach", "adminName2": "Bezirk Sissach", "lng": 7.80566908807028, "countryCode": "CH", "placeName": "Sissach", "adminCode3": "2861"}, "1203": {"postalCode": "1203", "adminName1": "Canton de Gen\u00e8ve", "adminCode1": "GE", "adminCode2": "2500", "lat": 46.20858136997516, "adminName3": "Gen\u00e8ve", "adminName2": "Geneva", "lng": 6.123623205431354, "countryCode": "CH", "placeName": "Gen\u00e8ve", "adminCode3": "6621"}, "3961": {"postalCode": "3961", "adminName1": "Canton du Valais", "adminCode1": "VS", "adminCode2": "2311", "lat": 46.143019786950994, "adminName3": "Anniviers", "adminName2": "District de Sierre", "lng": 7.563608045692718, "countryCode": "CH", "placeName": "Grimentz", "adminCode3": "6252"}, "5072": {"postalCode": "5072", "adminName1": "Kanton Aargau", "adminCode1": "AG", "adminCode2": "1906", "lat": 47.52487642725751, "adminName3": "Oeschgen", "adminName2": "Bezirk Laufenburg", "lng": 8.017948334388175, "countryCode": "CH", "placeName": "Oeschgen", "adminCode3": "4175"}, "1400": {"postalCode": "1400", "adminName1": "Canton de Vaud", "adminCode1": "VD", "adminCode2": "2224", "lat": 46.77870484580522, "adminName3": "Yverdon-les-Bains", "adminName2": "District du Jura-Nord vaudois", "lng": 6.63392466136357, "countryCode": "CH", "placeName": "Yverdon-les-Bains", "adminCode3": "5938"}, "6850": {"postalCode": "6850", "adminName1": "Cantone Ticino", "adminCode1": "TI", "adminCode2": "2106", "lat": 45.87246924600189, "adminName3": "Mendrisio", "adminName2": "Distretto di Mendrisio", "lng": 8.979159374568573, "countryCode": "CH", "placeName": "Mendrisio", "adminCode3": "5254"}, "6006": {"postalCode": "6006", "adminName1": "Kanton Luzern", "adminCode1": "LU", "adminCode2": "303", "lat": 47.05850830791421, "adminName3": "Luzern", "adminName2": "Amt Luzern", "lng": 8.33367072431864, "countryCode": "CH", "placeName": "Luzern", "adminCode3": "1061"}, "1196": {"postalCode": "1196", "adminName1": "Canton de Vaud", "adminCode1": "VD", "adminCode2": "2228", "lat": 46.41843346294106, "adminName3": "Gland", "adminName2": "District de Nyon", "lng": 6.269626082143627, "countryCode": "CH", "placeName": "Gland", "adminCode3": "5721"}, "1206": {"postalCode": "1206", "adminName1": "Canton de Gen\u00e8ve", "adminCode1": "GE", "adminCode2": "2500", "lat": 46.187159827516, "adminName3": "Gen\u00e8ve", "adminName2": "Geneva", "lng": 6.158817810950871, "countryCode": "CH", "placeName": "Gen\u00e8ve", "adminCode3": "6621"}, "1320": {"postalCode": "1320", "adminName1": "Canton de Vaud", "adminCode1": "VD", "adminCode2": "2223", "lat": 46.628643748280446, "adminName3": "Daillens", "adminName2": "District du Gros-de-Vaud", "lng": 6.549505165294352, "countryCode": "CH", "placeName": "Daillens ST PP 1", "adminCode3": "5480"}, "1223": {"postalCode": "1223", "adminName1": "Canton de Gen\u00e8ve", "adminCode1": "GE", "adminCode2": "2500", "lat": 46.218300256539756, "adminName3": "Cologny", "adminName2": "Geneva", "lng": 6.187117405427495, "countryCode": "CH", "placeName": "Cologny", "adminCode3": "6617"}, "4663": {"postalCode": "4663", "adminName1": "Kanton Aargau", "adminCode1": "AG", "adminCode2": "1910", "lat": 47.32308330042686, "adminName3": "Aarburg", "adminName2": "Bezirk Zofingen", "lng": 7.903558470428554, "countryCode": "CH", "placeName": "Aarburg", "adminCode3": "4271"}, "1299": {"postalCode": "1299", "adminName1": "Canton de Vaud", "adminCode1": "VD", "adminCode2": "2228", "lat": 46.35611881561729, "adminName3": "Crans-pr\u00e8s-C\u00e9ligny", "adminName2": "District de Nyon", "lng": 6.193807268913178, "countryCode": "CH", "placeName": "Crans-pr\u00e8s-C\u00e9ligny", "adminCode3": "5713"}, "1020": {"postalCode": "1020", "adminName1": "Canton de Vaud", "adminCode1": "VD", "adminCode2": "2229", "lat": 46.53644293698219, "adminName3": "Renens (VD)", "adminName2": "District de l'Ouest lausannois", "lng": 6.5894809100562615, "countryCode": "CH", "placeName": "Renens VD", "adminCode3": "5591"}, "7270": {"postalCode": "7270", "adminName1": "Kanton Graub\u00fcnden", "adminCode1": "GR", "adminCode2": "1830", "lat": 46.78578240230676, "adminName3": "Davos", "adminName2": "Bezirk Pr\u00e4ttigau-Davos", "lng": 9.815390252228319, "countryCode": "CH", "placeName": "Davos Platz", "adminCode3": "3851"}, "6904": {"postalCode": "6904", "adminName1": "Cantone Ticino", "adminCode1": "TI", "adminCode2": "2105", "lat": 46.01172505877123, "adminName3": "Lugano", "adminName2": "Distretto di Lugano", "lng": 8.957527923583985, "countryCode": "CH", "placeName": "Lugano 4 Molino Nuovo Casel", "adminCode3": "5192"}, "2300": {"postalCode": "2300", "adminName1": "Canton de Neuch\u00e2tel", "adminCode1": "NE", "adminCode2": "2402", "lat": 47.11094883171467, "adminName3": "La Chaux-de-Fonds", "adminName2": "District de la Chaux-de-Fonds", "lng": 6.829263360471522, "countryCode": "CH", "placeName": "La Chaux-de-Fonds", "adminCode3": "6421"}, "1162": {"postalCode": "1162", "adminName1": "Canton de Vaud", "adminCode1": "VD", "adminCode2": "2227", "lat": 46.48523557961969, "adminName3": "Saint-Prex", "adminName2": "District de Morges", "lng": 6.447424219058007, "countryCode": "CH", "placeName": "St-Prex", "adminCode3": "5646"}, "2035": {"postalCode": "2035", "adminName1": "Canton de Neuch\u00e2tel", "adminCode1": "NE", "adminCode2": "2401", "lat": 46.986862316243084, "adminName3": "Corcelles-Cormondr\u00e8che", "adminName2": "District de Boudry", "lng": 6.864681735056871, "countryCode": "CH", "placeName": "Corcelles NE", "adminCode3": "6407"}, "1287": {"postalCode": "1287", "adminName1": "Canton de Gen\u00e8ve", "adminCode1": "GE", "adminCode2": "2500", "lat": 46.158890391849674, "adminName3": "Laconnex", "adminName2": "Geneva", "lng": 6.033287726679419, "countryCode": "CH", "placeName": "Laconnex", "adminCode3": "6627"}, "1283": {"postalCode": "1283", "adminName1": "Canton de Gen\u00e8ve", "adminCode1": "GE", "adminCode2": "2500", "lat": 46.17880989002593, "adminName3": "Dardagny", "adminName2": "Geneva", "lng": 6.001170419745113, "countryCode": "CH", "placeName": "La Plaine", "adminCode3": "6620"}, "1197": {"postalCode": "1197", "adminName1": "Canton de Vaud", "adminCode1": "VD", "adminCode2": "2228", "lat": 46.401685751381855, "adminName3": "Prangins", "adminName2": "District de Nyon", "lng": 6.256150535613583, "countryCode": "CH", "placeName": "Prangins", "adminCode3": "5725"}, "1212": {"postalCode": "1212", "adminName1": "Canton de Gen\u00e8ve", "adminCode1": "GE", "adminCode2": "2500", "lat": 46.17927547492081, "adminName3": "Lancy", "adminName2": "Geneva", "lng": 6.118736234863005, "countryCode": "CH", "placeName": "Grand-Lancy", "adminCode3": "6628"}, "8127": {"postalCode": "8127", "adminName1": "Kanton Z\u00fcrich", "adminCode1": "ZH", "adminCode2": "109", "lat": 47.32215117795009, "adminName3": "Maur", "adminName2": "Bezirk Uster", "lng": 8.649205897989475, "countryCode": "CH", "placeName": "Forch", "adminCode3": "195"}, "3782": {"postalCode": "3782", "adminName1": "Kanton Bern", "adminCode1": "BE", "adminCode2": "248", "lat": 46.39347475376953, "adminName3": "Lauenen", "adminName2": "Obersimmental-Saanen", "lng": 7.342187030365768, "countryCode": "CH", "placeName": "Lauenen b. Gstaad", "adminCode3": "842"}, "1245": {"postalCode": "1245", "adminName1": "Canton de Gen\u00e8ve", "adminCode1": "GE", "adminCode2": "2500", "lat": 46.25689188725566, "adminName3": "Collonge-Bellerive", "adminName2": "Geneva", "lng": 6.206345143790815, "countryCode": "CH", "placeName": "Collonge-Bellerive", "adminCode3": "6616"}, "6949": {"postalCode": "6949", "adminName1": "Cantone Ticino", "adminCode1": "TI", "adminCode2": "2105", "lat": 46.04044676177601, "adminName3": "Comano", "adminName2": "Distretto di Lugano", "lng": 8.95724405161845, "countryCode": "CH", "placeName": "Comano", "adminCode3": "5176"}, "9443": {"postalCode": "9443", "adminName1": "Kanton St. Gallen", "adminCode1": "SG", "adminCode2": "1723", "lat": 47.401579605576465, "adminName3": "Widnau", "adminName2": "Wahlkreis Rheintal", "lng": 9.63422288103821, "countryCode": "CH", "placeName": "Widnau", "adminCode3": "3238"}, "6902": {"postalCode": "6902", "adminName1": "Cantone Ticino", "adminCode1": "TI", "adminCode2": "2105", "lat": 46.01172505877123, "adminName3": "Lugano", "adminName2": "Distretto di Lugano", "lng": 8.957527923583985, "countryCode": "CH", "placeName": "Lugano 2 Paradiso Caselle", "adminCode3": "5192"}, "7310": {"postalCode": "7310", "adminName1": "Kanton St. Gallen", "adminCode1": "SG", "adminCode2": "1725", "lat": 46.99147697069577, "adminName3": "Bad Ragaz", "adminName2": "Wahlkreis Sargans", "lng": 9.479666521026296, "countryCode": "CH", "placeName": "Bad Ragaz", "adminCode3": "3291"}, "8002": {"postalCode": "8002", "adminName1": "Kanton Z\u00fcrich", "adminCode1": "ZH", "adminCode2": "112", "lat": 47.36058387807499, "adminName3": "Z\u00fcrich", "adminName2": "Bezirk Z\u00fcrich", "lng": 8.532480891027644, "countryCode": "CH", "placeName": "Z\u00fcrich", "adminCode3": "261"}, "1618": {"postalCode": "1618", "adminName1": "Canton de Fribourg", "adminCode1": "FR", "adminCode2": "1007", "lat": 46.53379965169492, "adminName3": "Ch\u00e2tel-Saint-Denis", "adminName2": "District de la Veveyse", "lng": 6.943522185700053, "countryCode": "CH", "placeName": "Ch\u00e2tel-St-Denis", "adminCode3": "2325"}, "1009": {"postalCode": "1009", "adminName1": "Canton de Vaud", "adminCode1": "VD", "adminCode2": "2226", "lat": 46.51236694940368, "adminName3": "Pully", "adminName2": "District de Lavaux-Oron", "lng": 6.656717815940312, "countryCode": "CH", "placeName": "Pully", "adminCode3": "5590"}, "8966": {"postalCode": "8966", "adminName1": "Kanton Aargau", "adminCode1": "AG", "adminCode2": "1903", "lat": 47.3397773617751, "adminName3": "Oberwil-Lieli", "adminName2": "Bezirk Bremgarten", "lng": 8.391506023163604, "countryCode": "CH", "placeName": "Oberwil-Lieli", "adminCode3": "4074"}, "5325": {"postalCode": "5325", "adminName1": "Kanton Aargau", "adminCode1": "AG", "adminCode2": "1911", "lat": 47.587145941248046, "adminName3": "Leibstadt", "adminName2": "Bezirk Zurzach", "lng": 8.1771727589797, "countryCode": "CH", "placeName": "Leibstadt", "adminCode3": "4311"}, "1209": {"postalCode": "1209", "adminName1": "Canton de Gen\u00e8ve", "adminCode1": "GE", "adminCode2": "2500", "lat": 46.221842559605456, "adminName3": "Gen\u00e8ve", "adminName2": "Geneva", "lng": 6.124378325311812, "countryCode": "CH", "placeName": "Gen\u00e8ve", "adminCode3": "6621"}, "8834": {"postalCode": "8834", "adminName1": "Kanton Schwyz", "adminCode1": "SZ", "adminCode2": "503", "lat": 47.174237172151294, "adminName3": "Feusisberg", "adminName2": "Bezirk H\u00f6fe", "lng": 8.705885244141633, "countryCode": "CH", "placeName": "Schindellegi", "adminCode3": "1321"}, "6962": {"postalCode": "6962", "adminName1": "Cantone Ticino", "adminCode1": "TI", "adminCode2": "2105", "lat": 46.01207868502904, "adminName3": "Lugano", "adminName2": "Distretto di Lugano", "lng": 8.969200705409358, "countryCode": "CH", "placeName": "Viganello", "adminCode3": "5192"}, "1854": {"postalCode": "1854", "adminName1": "Canton de Vaud", "adminCode1": "VD", "adminCode2": "2221", "lat": 46.35128107755688, "adminName3": "Leysin", "adminName2": "District d'Aigle", "lng": 7.008755966082414, "countryCode": "CH", "placeName": "Leysin", "adminCode3": "5407"}, "1204": {"postalCode": "1204", "adminName1": "Canton de Gen\u00e8ve", "adminCode1": "GE", "adminCode2": "2500", "lat": 46.202422547518225, "adminName3": "Gen\u00e8ve", "adminName2": "Geneva", "lng": 6.144983165233175, "countryCode": "CH", "placeName": "Gen\u00e8ve", "adminCode3": "6621"}, "6000": {"postalCode": "6000", "adminName1": "Kanton Luzern", "adminCode1": "LU", "adminCode2": "303", "lat": 47.055908203125, "adminName3": "Luzern", "adminName2": "Amt Luzern", "lng": 8.31051921844482, "countryCode": "CH", "placeName": "Luzern", "adminCode3": "1061"}, "4052": {"postalCode": "4052", "adminName1": "Kanton Basel-Stadt", "adminCode1": "BS", "adminCode2": "1200", "lat": 47.52248303702366, "adminName3": "Basel", "adminName2": "Basel-Stadt", "lng": 7.596172404750683, "countryCode": "CH", "placeName": "Basel", "adminCode3": "2701"}, "6304": {"postalCode": "6304", "adminName1": "Kanton Zug", "adminCode1": "ZG", "adminCode2": "900", "lat": 47.1983, "adminName3": "Zug", "adminName2": "Zug", "lng": 8.5289, "countryCode": "CH", "placeName": "Zug", "adminCode3": "1711"}, "8702": {"postalCode": "8702", "adminName1": "Kanton Z\u00fcrich", "adminCode1": "ZH", "adminCode2": "107", "lat": 47.34112082482477, "adminName3": "Zollikon", "adminName2": "Bezirk Meilen", "lng": 8.575051185386078, "countryCode": "CH", "placeName": "Zollikon", "adminCode3": "161"}, "8098": {"postalCode": "8098", "adminName1": "Kanton Z\u00fcrich", "adminCode1": "ZH", "adminCode2": "112", "lat": 47.3666667, "adminName3": "Z\u00fcrich", "adminName2": "Bezirk Z\u00fcrich", "lng": 8.55, "countryCode": "CH", "placeName": "Z\u00fcrich", "adminCode3": "261"}, "1291": {"postalCode": "1291", "adminName1": "Canton de Vaud", "adminCode1": "VD", "adminCode2": "2228", "lat": 46.32360597509394, "adminName3": "Commugny", "adminName2": "District de Nyon", "lng": 6.164430710211813, "countryCode": "CH", "placeName": "Commugny", "adminCode3": "5711"}, "8807": {"postalCode": "8807", "adminName1": "Kanton Schwyz", "adminCode1": "SZ", "adminCode2": "503", "lat": 47.205466297497246, "adminName3": "Freienbach", "adminName2": "Bezirk H\u00f6fe", "lng": 8.755981884597656, "countryCode": "CH", "placeName": "Freienbach", "adminCode3": "1322"}, "2301": {"postalCode": "2301", "adminName1": "Canton de Neuch\u00e2tel", "adminCode1": "NE", "adminCode2": "2402", "lat": 47.1333333, "adminName3": "La Chaux-de-Fonds", "adminName2": "District de la Chaux-de-Fonds", "lng": 6.85, "countryCode": "CH", "placeName": "La Chaux-de-Fonds", "adminCode3": "6421"}, "1214": {"postalCode": "1214", "adminName1": "Canton de Gen\u00e8ve", "adminCode1": "GE", "adminCode2": "2500", "lat": 46.21335621135389, "adminName3": "Vernier", "adminName2": "Geneva", "lng": 6.08086944153287, "countryCode": "CH", "placeName": "Vernier", "adminCode3": "6643"}, "4051": {"postalCode": "4051", "adminName1": "Kanton Basel-Stadt", "adminCode1": "BS", "adminCode2": "1200", "lat": 47.55418960421439, "adminName3": "Basel", "adminName2": "Basel-Stadt", "lng": 7.586687172455341, "countryCode": "CH", "placeName": "Basel", "adminCode3": "2701"}, "6314": {"postalCode": "6314", "adminName1": "Kanton Zug", "adminCode1": "ZG", "adminCode2": "900", "lat": 47.11888877168913, "adminName3": "Unter\u00e4geri", "adminName2": "Zug", "lng": 8.584687431658963, "countryCode": "CH", "placeName": "Unter\u00e4geri", "adminCode3": "1709"}, "1872": {"postalCode": "1872", "adminName1": "Canton du Valais", "adminCode1": "VS", "adminCode2": "2308", "lat": 46.22818699256408, "adminName3": "Troistorrents", "adminName2": "District de Monthey", "lng": 6.904441572715931, "countryCode": "CH", "placeName": "Troistorrents", "adminCode3": "6156"}, "1201": {"postalCode": "1201", "adminName1": "Canton de Gen\u00e8ve", "adminCode1": "GE", "adminCode2": "2500", "lat": 46.21026606312725, "adminName3": "Gen\u00e8ve", "adminName2": "Geneva", "lng": 6.146403519329452, "countryCode": "CH", "placeName": "Gen\u00e8ve", "adminCode3": "6621"}, "1232": {"postalCode": "1232", "adminName1": "Canton de Gen\u00e8ve", "adminCode1": "GE", "adminCode2": "2500", "lat": 46.17091671301911, "adminName3": "Confignon", "adminName2": "Geneva", "lng": 6.08828661327217, "countryCode": "CH", "placeName": "Confignon", "adminCode3": "6618"}, "1170": {"postalCode": "1170", "adminName1": "Canton de Vaud", "adminCode1": "VD", "adminCode2": "2227", "lat": 46.48697049768743, "adminName3": "Aubonne", "adminName2": "District de Morges", "lng": 6.387335760615211, "countryCode": "CH", "placeName": "Aubonne", "adminCode3": "5422"}, "8024": {"postalCode": "8024", "adminName1": "Kanton Z\u00fcrich", "adminCode1": "ZH", "adminCode2": "112", "lat": 47.3666667, "adminName3": "Z\u00fcrich", "adminName2": "Bezirk Z\u00fcrich", "lng": 8.55, "countryCode": "CH", "placeName": "Z\u00fcrich", "adminCode3": "261"}, "1002": {"postalCode": "1002", "adminName1": "Canton de Vaud", "adminCode1": "VD", "adminCode2": "2225", "lat": 46.519533333333335, "adminName3": "Lausanne", "adminName2": "District de Lausanne", "lng": 6.632233333333333, "countryCode": "CH", "placeName": "Lausanne", "adminCode3": "5586"}, "6343": {"postalCode": "6343", "adminName1": "Kanton Zug", "adminCode1": "ZG", "adminCode2": "900", "lat": 47.14497424330408, "adminName3": "Risch", "adminName2": "Zug", "lng": 8.473951222717558, "countryCode": "CH", "placeName": "Rotkreuz", "adminCode3": "1707"}, "1205": {"postalCode": "1205", "adminName1": "Canton de Gen\u00e8ve", "adminCode1": "GE", "adminCode2": "2500", "lat": 46.19523649802562, "adminName3": "Gen\u00e8ve", "adminName2": "Geneva", "lng": 6.143625301344549, "countryCode": "CH", "placeName": "Gen\u00e8ve", "adminCode3": "6621"}, "1003": {"postalCode": "1003", "adminName1": "Canton de Vaud", "adminCode1": "VD", "adminCode2": "2225", "lat": 46.51999745622533, "adminName3": "Lausanne", "adminName2": "District de Lausanne", "lng": 6.6300348589256135, "countryCode": "CH", "placeName": "Lausanne", "adminCode3": "5586"}, "5001": {"postalCode": "5001", "adminName1": "Kanton Aargau", "adminCode1": "AG", "adminCode2": "1901", "lat": 47.392168796793605, "adminName3": "Aarau", "adminName2": "Bezirk Aarau", "lng": 8.049672380065916, "countryCode": "CH", "placeName": "Aarau 1 F\u00e4cher", "adminCode3": "4001"}, "4009": {"postalCode": "4009", "adminName1": "Kanton Basel-Stadt", "adminCode1": "BS", "adminCode2": "1200", "lat": 47.5666667, "adminName3": "Basel", "adminName2": "Basel-Stadt", "lng": 7.6, "countryCode": "CH", "placeName": "Basel", "adminCode3": "2701"}, "1217": {"postalCode": "1217", "adminName1": "Canton de Gen\u00e8ve", "adminCode1": "GE", "adminCode2": "2500", "lat": 46.23189005734076, "adminName3": "Meyrin", "adminName2": "Geneva", "lng": 6.071188822114946, "countryCode": "CH", "placeName": "Meyrin", "adminCode3": "6630"}, "1814": {"postalCode": "1814", "adminName1": "Canton de Vaud", "adminCode1": "VD", "adminCode2": "2230", "lat": 46.45501726027084, "adminName3": "La Tour-de-Peilz", "adminName2": "District de la Riviera-Pays-d'Enhaut", "lng": 6.8676563417919105, "countryCode": "CH", "placeName": "La Tour-de-Peilz", "adminCode3": "5889"}, "6302": {"postalCode": "6302", "adminName1": "Kanton Zug", "adminCode1": "ZG", "adminCode2": "900", "lat": 47.1666667, "adminName3": "Zug", "adminName2": "Zug", "lng": 8.5166667, "countryCode": "CH", "placeName": "Zug", "adminCode3": "1711"}, "8800": {"postalCode": "8800", "adminName1": "Kanton Z\u00fcrich", "adminCode1": "ZH", "adminCode2": "106", "lat": 47.2920203506808, "adminName3": "Thalwil", "adminName2": "Bezirk Horgen", "lng": 8.569034687081638, "countryCode": "CH", "placeName": "Thalwil", "adminCode3": "141"}, "2501": {"postalCode": "2501", "adminName1": "Kanton Bern", "adminCode1": "BE", "adminCode2": "242", "lat": 47.15035, "adminName3": "Biel/Bienne", "adminName2": "Biel/Bienne", "lng": 7.247, "countryCode": "CH", "placeName": "Biel/Bienne", "adminCode3": "371"}, "6930": {"postalCode": "6930", "adminName1": "Cantone Ticino", "adminCode1": "TI", "adminCode2": "2105", "lat": 46.05164570607751, "adminName3": "Bedano", "adminName2": "Distretto di Lugano", "lng": 8.916850943269402, "countryCode": "CH", "placeName": "Bedano", "adminCode3": "5148"}, "1215": {"postalCode": "1215", "adminName1": "Canton de Gen\u00e8ve", "adminCode1": "GE", "adminCode2": "2500", "lat": 46.2351867475682, "adminName3": "Le Grand-Saconnex", "adminName2": "Geneva", "lng": 6.1068769042413455, "countryCode": "CH", "placeName": "Gen\u00e8ve", "adminCode3": "6623"}, "1227": {"postalCode": "1227", "adminName1": "Canton de Gen\u00e8ve", "adminCode1": "GE", "adminCode2": "2500", "lat": 46.193496438197144, "adminName3": "Carouge (GE)", "adminName2": "Geneva", "lng": 6.133160103690287, "countryCode": "CH", "placeName": "Les Acacias", "adminCode3": "6608"}, "8808": {"postalCode": "8808", "adminName1": "Kanton Schwyz", "adminCode1": "SZ", "adminCode2": "503", "lat": 47.202623392232475, "adminName3": "Freienbach", "adminName2": "Bezirk H\u00f6fe", "lng": 8.773956021032804, "countryCode": "CH", "placeName": "Pf\u00e4ffikon SZ", "adminCode3": "1322"}, "1093": {"postalCode": "1093", "adminName1": "Canton de Vaud", "adminCode1": "VD", "adminCode2": "2226", "lat": 46.51393157513844, "adminName3": "Lutry", "adminName2": "District de Lavaux-Oron", "lng": 6.684515634611306, "countryCode": "CH", "placeName": "La Conversion", "adminCode3": "5606"}, "8704": {"postalCode": "8704", "adminName1": "Kanton Z\u00fcrich", "adminCode1": "ZH", "adminCode2": "107", "lat": 47.29431566036356, "adminName3": "Herrliberg", "adminName2": "Bezirk Meilen", "lng": 8.626176242000982, "countryCode": "CH", "placeName": "Herrliberg", "adminCode3": "152"}, "1273": {"postalCode": "1273", "adminName1": "Canton de Vaud", "adminCode1": "VD", "adminCode2": "2228", "lat": 46.523171580962085, "adminName3": "Arzier", "adminName2": "District de Nyon", "lng": 6.161070569277171, "countryCode": "CH", "placeName": "Arzier", "adminCode3": "5702"}, "9470": {"postalCode": "9470", "adminName1": "Kanton St. Gallen", "adminCode1": "SG", "adminCode2": "1724", "lat": 47.165167136842236, "adminName3": "Buchs (SG)", "adminName2": "Wahlkreis Werdenberg", "lng": 9.475761330591153, "countryCode": "CH", "placeName": "Buchs SG", "adminCode3": "3271"}, "1195": {"postalCode": "1195", "adminName1": "Canton de Vaud", "adminCode1": "VD", "adminCode2": "2228", "lat": 46.431427781017376, "adminName3": "Dully", "adminName2": "District de Nyon", "lng": 6.294614188442124, "countryCode": "CH", "placeName": "Dully", "adminCode3": "5855"}, "1090": {"postalCode": "1090", "adminName1": "Canton de Vaud", "adminCode1": "VD", "adminCode2": "2226", "lat": 46.523607457578144, "adminName3": "Lutry", "adminName2": "District de Lavaux-Oron", "lng": 6.701727483327604, "countryCode": "CH", "placeName": "La Croix (Lutry)", "adminCode3": "5606"}, "6422": {"postalCode": "6422", "adminName1": "Kanton Schwyz", "adminCode1": "SZ", "adminCode2": "506", "lat": 47.0490505050582, "adminName3": "Steinen", "adminName2": "Bezirk Schwyz", "lng": 8.609952494972903, "countryCode": "CH", "placeName": "Steinen", "adminCode3": "1373"}, "1033": {"postalCode": "1033", "adminName1": "Canton de Vaud", "adminCode1": "VD", "adminCode2": "2225", "lat": 46.58253336698749, "adminName3": "Cheseaux-sur-Lausanne", "adminName2": "District de Lausanne", "lng": 6.59597125507673, "countryCode": "CH", "placeName": "Cheseaux-sur-Lausanne", "adminCode3": "5582"}, "1132": {"postalCode": "1132", "adminName1": "Canton de Vaud", "adminCode1": "VD", "adminCode2": "2227", "lat": 46.50548817142394, "adminName3": "Lully (VD)", "adminName2": "District de Morges", "lng": 6.464251337910996, "countryCode": "CH", "placeName": "Lully VD", "adminCode3": "5639"}, "6582": {"postalCode": "6582", "adminName1": "Cantone Ticino", "adminCode1": "TI", "adminCode2": "2101", "lat": 46.15982786425665, "adminName3": "Pianezzo", "adminName2": "Distretto di Bellinzona", "lng": 9.049004734716595, "countryCode": "CH", "placeName": "Pianezzo", "adminCode3": "5014"}, "8447": {"postalCode": "8447", "adminName1": "Kanton Z\u00fcrich", "adminCode1": "ZH", "adminCode2": "102", "lat": 47.66174283150073, "adminName3": "Dachsen", "adminName2": "Bezirk Andelfingen", "lng": 8.624355795174955, "countryCode": "CH", "placeName": "Dachsen", "adminCode3": "25"}, "6340": {"postalCode": "6340", "adminName1": "Kanton Zug", "adminCode1": "ZG", "adminCode2": "900", "lat": 47.197763773053026, "adminName3": "Baar", "adminName2": "Zug", "lng": 8.536660404607485, "countryCode": "CH", "placeName": "Baar", "adminCode3": "1701"}, "8810": {"postalCode": "8810", "adminName1": "Kanton Z\u00fcrich", "adminCode1": "ZH", "adminCode2": "106", "lat": 47.25734304151599, "adminName3": "Horgen", "adminName2": "Bezirk Horgen", "lng": 8.604239966560698, "countryCode": "CH", "placeName": "Horgen", "adminCode3": "133"}, "1121": {"postalCode": "1121", "adminName1": "Canton de Vaud", "adminCode1": "VD", "adminCode2": "2227", "lat": 46.55013831201871, "adminName3": "Bremblens", "adminName2": "District de Morges", "lng": 6.520560105362542, "countryCode": "CH", "placeName": "Bremblens", "adminCode3": "5622"}, "8027": {"postalCode": "8027", "adminName1": "Kanton Z\u00fcrich", "adminCode1": "ZH", "adminCode2": "112", "lat": 47.3666667, "adminName3": "Z\u00fcrich", "adminName2": "Bezirk Z\u00fcrich", "lng": 8.55, "countryCode": "CH", "placeName": "Z\u00fcrich", "adminCode3": "261"}, "1820": {"postalCode": "1820", "adminName1": "Canton de Vaud", "adminCode1": "VD", "adminCode2": "2230", "lat": 46.43510893324101, "adminName3": "Montreux", "adminName2": "District de la Riviera-Pays-d'Enhaut", "lng": 6.912092146408533, "countryCode": "CH", "placeName": "Montreux", "adminCode3": "5886"}, "1246": {"postalCode": "1246", "adminName1": "Canton de Gen\u00e8ve", "adminCode1": "GE", "adminCode2": "2500", "lat": 46.262906581093716, "adminName3": "Corsier (GE)", "adminName2": "Geneva", "lng": 6.225912382430926, "countryCode": "CH", "placeName": "Corsier GE", "adminCode3": "6619"}, "4020": {"postalCode": "4020", "adminName1": "Kanton Basel-Stadt", "adminCode1": "BS", "adminCode2": "1200", "lat": 47.5666667, "adminName3": "Basel", "adminName2": "Basel-Stadt", "lng": 7.6, "countryCode": "CH", "placeName": "Basel", "adminCode3": "2701"}, "1659": {"postalCode": "1659", "adminName1": "Canton de Vaud", "adminCode1": "VD", "adminCode2": "2230", "lat": 46.488302121475996, "adminName3": "Rougemont", "adminName2": "District de la Riviera-Pays-d'Enhaut", "lng": 7.21296278427386, "countryCode": "CH", "placeName": "Rougemont", "adminCode3": "5843"}, "3000": {"postalCode": "3000", "adminName1": "Kanton Bern", "adminCode1": "BE", "adminCode2": "246", "lat": 46.95093222656251, "adminName3": "Bern", "adminName2": "Bern-Mittleland", "lng": 7.446333958943686, "countryCode": "CH", "placeName": "Bern", "adminCode3": "351"}, "8070": {"postalCode": "8070", "adminName1": "Kanton Z\u00fcrich", "adminCode1": "ZH", "adminCode2": "112", "lat": 47.366666700000025, "adminName3": "Z\u00fcrich", "adminName2": "Bezirk Z\u00fcrich", "lng": 8.550000000000006, "countryCode": "CH", "placeName": "Z\u00fcrich", "adminCode3": "261"}, "6301": {"postalCode": "6301", "adminName1": "Kanton Zug", "adminCode1": "ZG", "adminCode2": "900", "lat": 47.1666667, "adminName3": "Zug", "adminName2": "Zug", "lng": 8.5166667, "countryCode": "CH", "placeName": "Zug", "adminCode3": "1711"}, "1251": {"postalCode": "1251", "adminName1": "Canton de Gen\u00e8ve", "adminCode1": "GE", "adminCode2": "2500", "lat": 46.25362008827816, "adminName3": "Gy", "adminName2": "Geneva", "lng": 6.28585554427472, "countryCode": "CH", "placeName": "Gy", "adminCode3": "6624"}, "6318": {"postalCode": "6318", "adminName1": "Kanton Zug", "adminCode1": "ZG", "adminCode2": "900", "lat": 47.10447249433325, "adminName3": "Walchwil", "adminName2": "Zug", "lng": 8.526896111245591, "countryCode": "CH", "placeName": "Walchwil", "adminCode3": "1710"}, "8008": {"postalCode": "8008", "adminName1": "Kanton Z\u00fcrich", "adminCode1": "ZH", "adminCode2": "112", "lat": 47.35364119287249, "adminName3": "Z\u00fcrich", "adminName2": "Bezirk Z\u00fcrich", "lng": 8.561366511259202, "countryCode": "CH", "placeName": "Z\u00fcrich", "adminCode3": "261"}, "1241": {"postalCode": "1241", "adminName1": "Canton de Gen\u00e8ve", "adminCode1": "GE", "adminCode2": "2500", "lat": 46.21009867447046, "adminName3": "Puplinge", "adminName2": "Geneva", "lng": 6.229513297642549, "countryCode": "CH", "placeName": "Puplinge", "adminCode3": "6636"}, "1295": {"postalCode": "1295", "adminName1": "Canton de Vaud", "adminCode1": "VD", "adminCode2": "2228", "lat": 46.3035694818028, "adminName3": "Mies", "adminName2": "District de Nyon", "lng": 6.162785003652646, "countryCode": "CH", "placeName": "Mies", "adminCode3": "5723"}, "6977": {"postalCode": "6977", "adminName1": "Cantone Ticino", "adminCode1": "TI", "adminCode2": "2105", "lat": 46.00626666525497, "adminName3": "Lugano", "adminName2": "Distretto di Lugano", "lng": 8.975132152953995, "countryCode": "CH", "placeName": "Ruvigliana", "adminCode3": "5192"}, "3780": {"postalCode": "3780", "adminName1": "Kanton Bern", "adminCode1": "BE", "adminCode2": "248", "lat": 46.47562556754977, "adminName3": "Saanen", "adminName2": "Obersimmental-Saanen", "lng": 7.29427892992794, "countryCode": "CH", "placeName": "Gstaad", "adminCode3": "843"}, "1256": {"postalCode": "1256", "adminName1": "Canton de Gen\u00e8ve", "adminCode1": "GE", "adminCode2": "2500", "lat": 46.15935371367398, "adminName3": "Troinex", "adminName2": "Geneva", "lng": 6.15591115128005, "countryCode": "CH", "placeName": "Troinex", "adminCode3": "6641"}, "4001": {"postalCode": "4001", "adminName1": "Kanton Basel-Stadt", "adminCode1": "BS", "adminCode2": "1200", "lat": 47.55636331029133, "adminName3": "Basel", "adminName2": "Basel-Stadt", "lng": 7.588858806193521, "countryCode": "CH", "placeName": "Basel", "adminCode3": "2701"}, "4010": {"postalCode": "4010", "adminName1": "Kanton Basel-Stadt", "adminCode1": "BS", "adminCode2": "1200", "lat": 47.5528, "adminName3": "Basel", "adminName2": "Basel-Stadt", "lng": 7.5929, "countryCode": "CH", "placeName": "Basel", "adminCode3": "2701"}, "1293": {"postalCode": "1293", "adminName1": "Canton de Gen\u00e8ve", "adminCode1": "GE", "adminCode2": "2500", "lat": 46.25870118210548, "adminName3": "Bellevue", "adminName2": "Geneva", "lng": 6.135108563780662, "countryCode": "CH", "placeName": "Bellevue", "adminCode3": "6606"}, "1701": {"postalCode": "1701", "adminName1": "Canton de Fribourg", "adminCode1": "FR", "adminCode2": "1004", "lat": 46.8, "adminName3": "Fribourg", "adminName2": "District de la Sarine", "lng": 7.15, "countryCode": "CH", "placeName": "Fribourg", "adminCode3": "2196"}, "1920": {"postalCode": "1920", "adminName1": "Canton du Valais", "adminCode1": "VS", "adminCode2": "2307", "lat": 46.106349391962056, "adminName3": "Martigny", "adminName2": "Martigny", "lng": 7.099332417601685, "countryCode": "CH", "placeName": "Martigny", "adminCode3": "6136"}}